{
  "type": "FeatureCollection",
  "features": [
    {
      "type": "Feature",
      "properties": {
        "norad_id": 30243,
        "name": "FENGYUN 1C DEB",
        "group": "fengyun-1c-debris",
        "lat": 77.86755104540501,
        "lon": -44.09932135965319,
        "alt_km": 833.4121408409237,
        "timestamp": "2025-12-15T22:44:29.202781+00:00",
        "meta_object_name": "FENGYUN 1C DEB",
        "meta_object_id": "1999-025XC",
        "meta_epoch": "2025-12-15T07:08:43.357920",
        "meta_mean_motion": 14.13025402,
        "meta_eccentricity": 0.0013136,
        "meta_inclination": 98.6931,
        "meta_ra_of_asc_node": 0.6424,
        "meta_arg_of_pericenter": 112.4078,
        "meta_mean_anomaly": 265.3945,
        "meta_ephemeris_type": 0,
        "meta_classification_type": "U",
        "meta_norad_cat_id": 30243,
        "meta_element_set_no": 999,
        "meta_rev_at_epoch": 97315,
        "meta_bstar": 0.00040019393,
        "meta_mean_motion_dot": 7.05e-06,
        "meta_mean_motion_ddot": 0,
        "tle_line1": "1 30243U 99025XC  25349.29772405  .00000705  00000+0  40019-3 0  9994",
        "tle_line2": "2 30243  98.6931   0.6424 0013136 112.4078 265.3945 14.13025402973154"
      },
      "geometry": {
        "type": "Point",
        "coordinates": [
          -44.09932135965319,
          77.86755104540501
        ]
      }
    },
    {
      "type": "Feature",
      "properties": {
        "norad_id": 30244,
        "name": "FENGYUN 1C DEB",
        "group": "fengyun-1c-debris",
        "lat": -59.1247358749808,
        "lon": -104.6960264628833,
        "alt_km": 842.5504152427256,
        "timestamp": "2025-12-15T22:44:29.202792+00:00",
        "meta_object_name": "FENGYUN 1C DEB",
        "meta_object_id": "1999-025XD",
        "meta_epoch": "2025-12-15T05:04:53.298336",
        "meta_mean_motion": 14.15019624,
        "meta_eccentricity": 0.00094294,
        "meta_inclination": 99.1434,
        "meta_ra_of_asc_node": 238.9239,
        "meta_arg_of_pericenter": 308.293,
        "meta_mean_anomaly": 205.0915,
        "meta_ephemeris_type": 0,
        "meta_classification_type": "U",
        "meta_norad_cat_id": 30244,
        "meta_element_set_no": 999,
        "meta_rev_at_epoch": 97381,
        "meta_bstar": 0.00040048053,
        "meta_mean_motion_dot": 7.29e-06,
        "meta_mean_motion_ddot": 0,
        "tle_line1": "1 30244U 99025XD  25349.21172799  .00000729  00000+0  40048-3 0  9995",
        "tle_line2": "2 30244  99.1434 238.9239 0009429 308.2930 205.0915 14.15019624973813"
      },
      "geometry": {
        "type": "Point",
        "coordinates": [
          -104.6960264628833,
          -59.1247358749808
        ]
      }
    },
    {
      "type": "Feature",
      "properties": {
        "norad_id": 30245,
        "name": "FENGYUN 1C DEB",
        "group": "fengyun-1c-debris",
        "lat": 26.27974697329478,
        "lon": -27.080523544730323,
        "alt_km": 1080.3408649440971,
        "timestamp": "2025-12-15T22:44:29.202803+00:00",
        "meta_object_name": "FENGYUN 1C DEB",
        "meta_object_id": "1999-025XE",
        "meta_epoch": "2025-12-15T05:11:49.261632",
        "meta_mean_motion": 13.79074694,
        "meta_eccentricity": 0.01930436,
        "meta_inclination": 98.889,
        "meta_ra_of_asc_node": 336.6653,
        "meta_arg_of_pericenter": 244.3778,
        "meta_mean_anomaly": 113.7319,
        "meta_ephemeris_type": 0,
        "meta_classification_type": "U",
        "meta_norad_cat_id": 30245,
        "meta_element_set_no": 999,
        "meta_rev_at_epoch": 94728,
        "meta_bstar": 0.0011845349,
        "meta_mean_motion_dot": 1.35e-05,
        "meta_mean_motion_ddot": 0,
        "tle_line1": "1 30245U 99025XE  25349.21654238  .00001350  00000+0  11845-2 0  9992",
        "tle_line2": "2 30245  98.8890 336.6653 0193043 244.3778 113.7319 13.79074694947280"
      },
      "geometry": {
        "type": "Point",
        "coordinates": [
          -27.080523544730323,
          26.27974697329478
        ]
      }
    },
    {
      "type": "Feature",
      "properties": {
        "norad_id": 30246,
        "name": "FENGYUN 1C DEB",
        "group": "fengyun-1c-debris",
        "lat": -6.080344043164424,
        "lon": 134.08521617746356,
        "alt_km": 1151.0540200904288,
        "timestamp": "2025-12-15T22:44:29.202813+00:00",
        "meta_object_name": "FENGYUN 1C DEB",
        "meta_object_id": "1999-025XF",
        "meta_epoch": "2025-12-15T08:42:37.526976",
        "meta_mean_motion": 13.37020082,
        "meta_eccentricity": 0.03706768,
        "meta_inclination": 98.6731,
        "meta_ra_of_asc_node": 132.6544,
        "meta_arg_of_pericenter": 93.1326,
        "meta_mean_anomaly": 332.5591,
        "meta_ephemeris_type": 0,
        "meta_classification_type": "U",
        "meta_norad_cat_id": 30246,
        "meta_element_set_no": 999,
        "meta_rev_at_epoch": 92175,
        "meta_bstar": 0.0002853315,
        "meta_mean_motion_dot": 1.88e-06,
        "meta_mean_motion_ddot": 0,
        "tle_line1": "1 30246U 99025XF  25349.36293434  .00000188  00000+0  28533-3 0  9997",
        "tle_line2": "2 30246  98.6731 132.6544 0370676  93.1326 332.5591 13.37020082921757"
      },
      "geometry": {
        "type": "Point",
        "coordinates": [
          134.08521617746356,
          -6.080344043164424
        ]
      }
    },
    {
      "type": "Feature",
      "properties": {
        "norad_id": 30247,
        "name": "FENGYUN 1C DEB",
        "group": "fengyun-1c-debris",
        "lat": 34.46968802743374,
        "lon": -108.6412855930288,
        "alt_km": 608.8535309685112,
        "timestamp": "2025-12-15T22:44:29.202824+00:00",
        "meta_object_name": "FENGYUN 1C DEB",
        "meta_object_id": "1999-025XG",
        "meta_epoch": "2025-12-15T05:11:17.315232",
        "meta_mean_motion": 14.59279377,
        "meta_eccentricity": 0.01935737,
        "meta_inclination": 98.2773,
        "meta_ra_of_asc_node": 256.3646,
        "meta_arg_of_pericenter": 344.3955,
        "meta_mean_anomaly": 168.8065,
        "meta_ephemeris_type": 0,
        "meta_classification_type": "U",
        "meta_norad_cat_id": 30247,
        "meta_element_set_no": 999,
        "meta_rev_at_epoch": 97318,
        "meta_bstar": 0.0019678255,
        "meta_mean_motion_dot": 0.00012041,
        "meta_mean_motion_ddot": 0,
        "tle_line1": "1 30247U 99025XG  25349.21617263  .00012041  00000+0  19678-2 0  9992",
        "tle_line2": "2 30247  98.2773 256.3646 0193573 344.3955 168.8065 14.59279377973183"
      },
      "geometry": {
        "type": "Point",
        "coordinates": [
          -108.6412855930288,
          34.46968802743374
        ]
      }
    },
    {
      "type": "Feature",
      "properties": {
        "norad_id": 30248,
        "name": "FENGYUN 1C DEB",
        "group": "fengyun-1c-debris",
        "lat": 66.408696035063,
        "lon": 152.8472639288289,
        "alt_km": 682.3873506436075,
        "timestamp": "2025-12-15T22:44:29.202834+00:00",
        "meta_object_name": "FENGYUN 1C DEB",
        "meta_object_id": "1999-025XH",
        "meta_epoch": "2025-12-13T11:11:21.557472",
        "meta_mean_motion": 14.59227145,
        "meta_eccentricity": 0.00291657,
        "meta_inclination": 99.0993,
        "meta_ra_of_asc_node": 171.6596,
        "meta_arg_of_pericenter": 148.1807,
        "meta_mean_anomaly": 212.1159,
        "meta_ephemeris_type": 0,
        "meta_classification_type": "U",
        "meta_norad_cat_id": 30248,
        "meta_element_set_no": 999,
        "meta_rev_at_epoch": 97439,
        "meta_bstar": 0.0068532772,
        "meta_mean_motion_dot": 0.00032626,
        "meta_mean_motion_ddot": 0,
        "tle_line1": "1 30248U 99025XH  25347.46622173  .00032626  00000+0  68533-2 0  9999",
        "tle_line2": "2 30248  99.0993 171.6596 0029165 148.1807 212.1159 14.59227145974398"
      },
      "geometry": {
        "type": "Point",
        "coordinates": [
          152.8472639288289,
          66.408696035063
        ]
      }
    },
    {
      "type": "Feature",
      "properties": {
        "norad_id": 30249,
        "name": "FENGYUN 1C DEB",
        "group": "fengyun-1c-debris",
        "lat": 60.25102101956756,
        "lon": -9.36875566663152,
        "alt_km": 693.371000746979,
        "timestamp": "2025-12-15T22:44:29.202845+00:00",
        "meta_object_name": "FENGYUN 1C DEB",
        "meta_object_id": "1999-025XJ",
        "meta_epoch": "2025-12-15T01:19:08.175936",
        "meta_mean_motion": 14.57747133,
        "meta_eccentricity": 0.00265168,
        "meta_inclination": 98.9583,
        "meta_ra_of_asc_node": 153.6492,
        "meta_arg_of_pericenter": 34.5313,
        "meta_mean_anomaly": 81.9968,
        "meta_ephemeris_type": 0,
        "meta_classification_type": "U",
        "meta_norad_cat_id": 30249,
        "meta_element_set_no": 999,
        "meta_rev_at_epoch": 97597,
        "meta_bstar": 0.001899981,
        "meta_mean_motion_dot": 8.679e-05,
        "meta_mean_motion_ddot": 0,
        "tle_line1": "1 30249U 99025XJ  25349.05495574  .00008679  00000+0  19000-2 0  9996",
        "tle_line2": "2 30249  98.9583 153.6492 0026516  34.5313  81.9968 14.57747133975971"
      },
      "geometry": {
        "type": "Point",
        "coordinates": [
          -9.36875566663152,
          60.25102101956756
        ]
      }
    }
  ]
}